[{"OBJECT_NAME":"SALSAT","OBJECT_ID":"2020-068K","EPOCH":"2026-03-09T22:26:21.804576","MEAN_MOTION":15.28191989,"ECCENTRICITY":0.00082652,"INCLINATION":97.8859,"RA_OF_ASC_NODE":66.0795,"ARG_OF_PERICENTER":295.8051,"MEAN_ANOMALY":64.2334,"EPHEMERIS_TYPE":0,"CLASSIFICATION_TYPE":"U","NORAD_CAT_ID":46495,"ELEMENT_SET_NO":999,"REV_AT_EPOCH":30019,"BSTAR":0.00040842582,"MEAN_MOTION_DOT":0.00011156,"MEAN_MOTION_DDOT":0},{"OBJECT_NAME":"STARLINK-36505","OBJECT_ID":"2026-008U","EPOCH":"2026-03-09T10:19:23.686464","MEAN_MOTION":15.27604385,"ECCENTRICITY":0.00031169,"INCLINATION":43.0003,"RA_OF_ASC_NODE":206.5863,"ARG_OF_PERICENTER":298.0886,"MEAN_ANOMALY":61.965,"EPHEMERIS_TYPE":0,"CLASSIFICATION_TYPE":"U","NORAD_CAT_ID":67463,"ELEMENT_SET_NO":999,"REV_AT_EPOCH":953,"BSTAR":0.0013965981,"MEAN_MOTION_DOT":0.00038401,"MEAN_MOTION_DDOT":0}]
